COSMOS 2433 (720)       
1 32275C 07052A   23304.99979167  .00000000  00000-0  00000-0 0  3042
2 32275  66.0059 348.0171 0005385 242.6154 308.0102  2.13104163    12
COSMOS 2432 (719)       
1 32276C 07052B   23304.99979167  .00000000  00000-0  00000-0 0  3043
2 32276  66.0204 348.1268 0010271 311.2241 186.2837  2.13103361    13
COSMOS 2434 (721)       
1 32393C 07065A   23304.99979167  .00000000  00000-0  00000-0 0  3047
2 32393  64.3307 224.3484 0002460  70.6907  11.3057  2.13103215    19
COSMOS 2436 (723)       
1 32395C 07065C   23304.99979167  .00000000  00000-0  00000-0 0  3049
2 32395  64.3394 224.4106 0016494   0.3618 217.0793  2.13102685    12
COSMOS 2456 (730)       
1 36111C 09070A   23304.99979167 -.00000000  00000-0  00000-0 0  3048
2 36111  64.5160 103.8253 0001224 332.6260 267.6988  2.13099179    17
COSMOS 2457 (733)       
1 36112C 09070B   23304.99979167 -.00000000  00000-0  00000-0 0  3049
2 36112  64.5001 103.6893 0006622 149.0492 222.5162  2.13101362    16
COSMOS 2460 (732)       
1 36402C 10007C   23304.99979167  .00000000  00000-0  00000-0 0  3042
2 36402  65.8672 346.7227 0002463 247.4094 113.2237  2.13106435    12
COSMOS 2476 (744)       
1 37867C 11064A   23304.99979167 -.00000000  00000-0  00000-0 0  3043
2 37867  64.7946 105.3744 0021532 230.1273 280.0051  2.13101717    14
COSMOS 2477 (745)       
1 37868C 11064B   23304.99979167 -.00000000  00000-0  00000-0 0  3044
2 37868  64.8019 105.4446 0018763 229.9085  98.0808  2.13101659    18
COSMOS 2475 (743)       
1 37869C 11064C   23304.99979167 -.00000000  00000-0  00000-0 0  3045
2 37869  64.8090 105.4573 0022652 248.3779  38.1517  2.13101935    15
COSMOS 2485 (747)       
1 39155C 13019A   23304.99979167 -.00000000  00000-0  00000-0 0  3047
2 39155  64.9543 105.9103 0022048 226.1190 328.4107  2.13101841    19
COSMOS 2492 (754)       
1 39620C 14012A   23304.99979167  .00000000  00000-0  00000-0 0  3047
2 39620  65.7505 346.3329 0013415 310.2715 278.4720  2.13103202    18
COSMOS 2500 (755)       
1 40001C 14032A   23304.99979167  .00000000  00000-0  00000-0 0  3044
2 40001  65.6886 346.1558 0008605 214.7362 234.0413  2.13106082    13
COSMOS 2501 (702K)      
1 40315C 14075A   23304.99979167  .00000000  00000-0  00000-0 0  3049
2 40315  63.6336 223.6517 0018880 208.3668  48.0752  2.13101240    17
COSMOS 2514 (751)       
1 41330C 16008A   23304.99979167  .00000000  00000-0  00000-0 0  3045
2 41330  65.4853 345.7228 0012661 217.9365  52.7620  2.13102670    19
COSMOS 2522 (752)       
1 42939C 17055A   23304.99979167  .00000000  00000-0  00000-0 0  3044
2 42939  64.0943 224.6108 0007604 241.0781 151.1757  2.13102149    19
COSMOS 2527 (756)       
1 43508C 18053A   23304.99979167 -.00000000  00000-0  00000-0 0  3047
2 43508  65.1155 106.0148 0007802 213.0642 210.9133  2.13102502    16
COSMOS 2529 (757)       
1 43687C 18086A   23304.99979167  .00000000  00000-0  00000-0 0  3040
2 43687  64.3097 225.0618 0009284 265.0481  82.6653  2.13102135    11
COSMOS 2534 (758)       
1 44299C 19030A   23304.99979167  .00000000  00000-0  00000-0 0  3040
2 44299  64.3824 224.9937 0011713 286.2652 195.6905  2.13101950    15
COSMOS 2544 (759)       
1 44850C 19088A   23304.99979167 -.00000000  00000-0  00000-0 0  3047
2 44850  65.1016 105.8565 0011347 247.5171 219.5104  2.13102225    16
COSMOS 2545 (760)       
1 45358C 20018A   23304.99979167  .00000000  00000-0  00000-0 0  3045
2 45358  64.8256 345.9207 0011849 245.6483  70.3671  2.13102682    13
COSMOS 2547 (705K)      
1 46805C 20075A   23304.99979167  .00000000  00000-0  00000-0 0  3046
2 46805  64.6101 224.5669 0007051 242.1273 289.1216  2.13102765    18
COSMOS 2557 (706K)      
1 52984C 20075A   23304.99979167  .00000000  00000-0  00000-0 0  3041
2 52984  64.7441 348.0739 0013609 276.4052 129.8250  2.13102313    19
COSMOS 2559 (707K)      
1 54031C 22130A   23304.99979167  .00000000  00000-0  00000-0 0  3040
2 54031  64.7155 348.1995 0007993 228.2591 222.4179  2.13101543    17
COSMOS 2564 (761)       
1 54377C 22161A   23304.99979167  .00000000  00000-0  00000-0 0  3047
2 54377  64.7509 224.6302 0008922 220.6942  82.0333  2.13102258    18
COSMOS 2569 (703K)      
1 57517C 23114A   23304.99979167 -.00000000  00000-0  00000-0 0  3046
2 57517  64.8251 105.0894 0008552 294.8115 353.1429  2.13104257    13
